[{"OBJECT_NAME":"STARLINK-5532","OBJECT_ID":"2023-028V","EPOCH":"2026-03-09T21:04:35.078592","MEAN_MOTION":14.98337029,"ECCENTRICITY":0.00031323,"INCLINATION":69.9992,"RA_OF_ASC_NODE":243.7677,"ARG_OF_PERICENTER":266.5125,"MEAN_ANOMALY":93.5676,"EPHEMERIS_TYPE":0,"CLASSIFICATION_TYPE":"U","NORAD_CAT_ID":55760,"ELEMENT_SET_NO":999,"REV_AT_EPOCH":16607,"BSTAR":9.7835641e-5,"MEAN_MOTION_DOT":1.075e-5,"MEAN_MOTION_DDOT":0},{"OBJECT_NAME":"CZ-4C DEB","OBJECT_ID":"2015-069E","EPOCH":"2026-03-08T09:26:17.543040","MEAN_MOTION":15.0129982,"ECCENTRICITY":0.00755181,"INCLINATION":98.2766,"RA_OF_ASC_NODE":51.2744,"ARG_OF_PERICENTER":283.3594,"MEAN_ANOMALY":75.9217,"EPHEMERIS_TYPE":0,"CLASSIFICATION_TYPE":"U","NORAD_CAT_ID":42672,"ELEMENT_SET_NO":999,"REV_AT_EPOCH":54397,"BSTAR":0.0018440127,"MEAN_MOTION_DOT":0.00025217,"MEAN_MOTION_DDOT":0}]
